NORAD_CAT_ID,OBJECT_NAME,OBJECT_TYPE,EPOCH,MEAN_MOTION,ECCENTRICITY,INCLINATION,RA_OF_ASC_NODE,ARG_OF_PERICENTER,MEAN_ANOMALY,BSTAR,MEAN_MOTION_DOT,MEAN_MOTION_DDOT,TLE_LINE0,TLE_LINE1,TLE_LINE2,SEMIMAJOR_AXIS,PERIOD,APOGEE,PERIGEE,DECAYED
52695.0,STARLINK-4041,PAYLOAD,2024-06-17 22:41:27,15.08843868,0.000159,53.2196,95.9501,100.2986,259.8185,7.6028e-05,9.22e-06,0.0,0 STARLINK-4041,1 52695U 22053AR  24169.94545376  .00000922  00000-0  76028-4 0  9994,2 52695  53.2196  95.9501 0001590 100.2986 259.8185 15.08843868116024,6917.869,95.437,540.834,538.634,0.0
52695.0,STARLINK-4041,PAYLOAD,2024-06-18 05:02:58,15.08864383,0.0001513,53.2173,94.7587,96.4101,263.7063,0.00024309,3.585e-05,0.0,0 STARLINK-4041,1 52695U 22053AR  24170.21039418  .00003585  00000-0  24309-3 0  9993,2 52695  53.2173  94.7587 0001513  96.4101 263.7063 15.08864383115652,6917.806,95.436,540.718,538.624,0.0
52695.0,STARLINK-4041,PAYLOAD,2024-06-19 01:43:01,15.08823322,0.0001041,53.2191,90.8956,85.4917,274.6195,-2.7232e-05,-7.21e-06,0.0,0 STARLINK-4041,1 52695U 22053AR  24171.07155074 -.00000721  00000-0 -27232-4 0  9995,2 52695  53.2191  90.8956 0001041  85.4917 274.6195 15.08823322115787,6917.931,95.439,540.517,539.076,0.0
52695.0,STARLINK-4041,PAYLOAD,2024-06-19 11:15:20,15.08830334,0.000114,53.218,89.1121,88.0792,272.0331,-4.7681e-05,-1.046e-05,0.0,0 STARLINK-4041,1 52695U 22053AR  24171.46898937 -.00001046  00000-0 -47681-4 0  9991,2 52695  53.2180  89.1121 0001140  88.0792 272.0331 15.08830334115842,6917.91,95.438,540.564,538.986,0.0
52695.0,STARLINK-4041,PAYLOAD,2024-06-19 22:23:02,15.08847591,0.0001058,53.2168,87.028,70.857,289.2536,-0.00016183,-2.863e-05,0.0,0 STARLINK-4041,1 52695U 22053AR  24171.93266505 -.00002863  00000-0 -16183-3 0  9993,2 52695  53.2168  87.0280 0001058  70.8570 289.2536 15.08847591116326,6917.857,95.437,540.454,538.99,0.0
52695.0,STARLINK-4041,PAYLOAD,2024-06-20 01:33:48,15.08852494,0.0001094,53.2174,86.4352,79.5921,280.5194,-0.00010841,-2.013e-05,0.0,0 STARLINK-4041,1 52695U 22053AR  24172.06513957 -.00002013  00000-0 -10841-3 0  9996,2 52695  53.2174  86.4352 0001094  79.5921 280.5194 15.08852494115930,6917.842,95.437,540.464,538.95,0.0
52695.0,STARLINK-4041,PAYLOAD,2024-06-20 11:06:06,15.08849659,0.0001068,53.2169,84.65,77.1188,282.9923,-0.00012471,-2.273e-05,0.0,0 STARLINK-4041,1 52695U 22053AR  24172.46258011 -.00002273  00000-0 -12471-3 0  9996,2 52695  53.2169  84.6500 0001068  77.1188 282.9923 15.08849659116407,6917.851,95.437,540.455,538.977,0.0
52695.0,STARLINK-4041,PAYLOAD,2024-06-20 22:13:49,15.08828713,0.0001027,53.2171,82.5692,72.0093,288.1011,9.4213e-05,1.212e-05,0.0,0 STARLINK-4041,1 52695U 22053AR  24172.92627099  .00001212  00000-0  94213-4 0  9998,2 52695  53.2171  82.5692 0001027  72.0093 288.1011 15.08828713116474,6917.915,95.438,540.49,539.069,0.0
52695.0,STARLINK-4041,PAYLOAD,2024-06-20 23:49:12,15.08822852,0.0001064,53.2174,82.2723,76.4035,283.7076,0.00022216,3.248e-05,0.0,0 STARLINK-4041,1 52695U 22053AR  24172.99251101  .00003248  00000-0  22216-3 0  9996,2 52695  53.2174  82.2723 0001064  76.4035 283.7076 15.08822852116070,6917.933,95.439,540.534,539.062,0.0
52695.0,STARLINK-4041,PAYLOAD,2024-06-21 04:35:22,15.08836186,0.0001205,53.2184,81.378,69.1743,290.9378,0.00013502,1.861e-05,0.0,0 STARLINK-4041,1 52695U 22053AR  24173.19122742  .00001861  00000-0  13502-3 0  9994,2 52695  53.2184  81.3780 0001205  69.1743 290.9378 15.08836186116100,6917.892,95.438,540.591,538.923,0.0
52695.0,STARLINK-4041,PAYLOAD,2024-06-21 22:04:36,15.0883713,0.0001369,53.2191,78.1055,65.6773,294.4362,7.2483e-05,8.66e-06,0.0,0 STARLINK-4041,1 52695U 22053AR  24173.91987149  .00000866  00000-0  72483-4 0  9992,2 52695  53.2191  78.1055 0001369  65.6773 294.4362 15.08837130116621,6917.889,95.438,540.701,538.807,0.0
52695.0,STARLINK-4041,PAYLOAD,2024-06-22 01:15:23,15.08804233,0.000158,53.2193,77.5104,76.2576,283.8592,0.00057972,8.941e-05,0.0,0 STARLINK-4041,1 52695U 22053AR  24174.05235685  .00008941  00000-0  57972-3 0  9996,2 52695  53.2193  77.5104 0001580  76.2576 283.8592 15.08804233116237,6917.99,95.44,540.948,538.762,0.0
52695.0,STARLINK-4041,PAYLOAD,2024-06-22 17:09:14,15.08838467,0.0001406,53.2187,74.5421,75.9671,284.1477,6.693e-05,7.77e-06,0.0,0 STARLINK-4041,1 52695U 22053AR  24174.71475227  .00000777  00000-0  66930-4 0  9991,2 52695  53.2187  74.5421 0001406  75.9671 284.1477 15.08838467116331,6917.885,95.438,540.723,538.777,0.0
52695.0,STARLINK-4041,PAYLOAD,2024-06-22 21:55:23,15.08839096,0.0001317,53.2183,73.6497,80.6958,279.4183,7.2006e-05,8.58e-06,0.0,0 STARLINK-4041,1 52695U 22053AR  24174.91347137  .00000858  00000-0  72006-4 0  9992,2 52695  53.2183  73.6497 0001317  80.6958 279.4183 15.08839096116770,6917.883,95.438,540.659,538.837,0.0
52695.0,STARLINK-4041,PAYLOAD,2024-06-23 21:46:10,15.0884399,0.0001417,53.2189,69.1904,74.1771,285.9377,7.1827e-05,8.55e-06,0.0,0 STARLINK-4041,1 52695U 22053AR  24175.90706862  .00000855  00000-0  71827-4 0  9993,2 52695  53.2189  69.1904 0001417  74.1771 285.9377 15.08843990116923,6917.868,95.437,540.713,538.753,0.0
52695.0,STARLINK-4041,PAYLOAD,2024-06-24 02:32:19,15.08850005,0.0001228,53.2179,68.296,87.6909,272.4224,0.00011962,1.617e-05,0.0,0 STARLINK-4041,1 52695U 22053AR  24176.10578171  .00001617  00000-0  11962-3 0  9996,2 52695  53.2179  68.2960 0001228  87.6909 272.4224 15.08850005116541,6917.85,95.437,540.564,538.865,0.0
52695.0,STARLINK-4041,PAYLOAD,2024-06-24 20:01:34,15.08844405,0.000131,53.2175,65.0174,131.0822,229.0284,-4.6735e-05,-1.032e-05,0.0,0 STARLINK-4041,1 52695U 22053AR  24176.83442747 -.00001032  00000-0 -46735-4 0  9995,2 52695  53.2175  65.0174 0001310 131.0822 229.0284 15.08844405116652,6917.867,95.437,540.638,538.826,0.0
52695.0,STARLINK-4041,PAYLOAD,2024-06-24 21:36:57,15.08844283,0.000128,53.2178,64.7208,124.1608,235.9505,-3.8386e-05,-8.99e-06,0.0,0 STARLINK-4041,1 52695U 22053AR  24176.90066746 -.00000899  00000-0 -38386-4 0  9997,2 52695  53.2178  64.7208 0001280 124.1608 235.9505 15.08844283117073,6917.867,95.437,540.618,538.847,0.0
52695.0,STARLINK-4041,PAYLOAD,2024-06-25 21:27:44,15.08850074,0.0001084,53.2178,60.2593,106.7919,253.3192,-2.7156e-05,-7.2e-06,0.0,0 STARLINK-4041,1 52695U 22053AR  24177.89426419 -.00000720  00000-0 -27156-4 0  9999,2 52695  53.2178  60.2593 0001084 106.7919 253.3192 15.08850074117222,6917.85,95.437,540.464,538.965,0.0
52695.0,STARLINK-4041,PAYLOAD,2024-06-26 02:13:53,15.08855954,0.0001051,53.2183,59.3697,91.8366,268.2747,5.4946e-05,5.87e-06,0.0,0 STARLINK-4041,1 52695U 22053AR  24178.09297763  .00000587  00000-0  54946-4 0  9996,2 52695  53.2183  59.3697 0001051  91.8366 268.2747 15.08855954116846,6917.832,95.437,540.424,538.97,0.0
52695.0,STARLINK-4041,PAYLOAD,2024-06-26 22:53:55,15.08835919,0.0001273,53.2185,55.5073,90.4374,269.6764,3.5572e-05,2.78e-06,0.0,0 STARLINK-4041,1 52695U 22053AR  24178.95411308  .00000278  00000-0  35572-4 0  9995,2 52695  53.2185  55.5073 0001273  90.4374 269.6764 15.08835919117387,6917.893,95.438,540.639,538.877,0.0
52695.0,STARLINK-4041,PAYLOAD,2024-06-27 19:33:56,15.08835032,0.0001202,53.2177,51.6433,85.8087,274.3043,-8.0716e-05,-1.572e-05,0.0,0 STARLINK-4041,1 52695U 22053AR  24179.81524215 -.00001572  00000-0 -80716-4 0  9993,2 52695  53.2177  51.6433 0001202  85.8087 274.3043 15.08835032117105,6917.896,95.438,540.592,538.929,0.0
52695.0,STARLINK-4041,PAYLOAD,2024-06-27 22:44:42,15.08838122,0.0001252,53.218,51.0483,93.1157,266.9978,-5.7015e-05,-1.195e-05,0.0,0 STARLINK-4041,1 52695U 22053AR  24179.94771942 -.00001195  00000-0 -57015-4 0  9995,2 52695  53.2180  51.0483 0001252  93.1157 266.9978 15.08838122117537,6917.886,95.438,540.617,538.885,0.0
52695.0,STARLINK-4041,PAYLOAD,2024-06-28 08:17:01,15.08847808,0.0001253,53.2184,49.266,88.7333,271.3803,3.1873e-05,2.2e-06,0.0,0 STARLINK-4041,1 52695U 22053AR  24180.34515145  .00000220  00000-0  31873-4 0  9992,2 52695  53.2184  49.2660 0001253  88.7333 271.3803 15.08847808117183,6917.857,95.437,540.588,538.855,0.0
52695.0,STARLINK-4041,PAYLOAD,2024-06-28 22:35:28,15.0886196,0.000126,53.2177,46.5879,86.8043,273.3093,0.00056146,8.664e-05,0.0,0 STARLINK-4041,1 52695U 22053AR  24180.94130364  .00008664  00000-0  56146-3 0  9993,2 52695  53.2177  46.5879 0001260  86.8043 273.3093 15.08861960117685,6917.813,95.436,540.55,538.807,0.0
52695.0,STARLINK-4041,PAYLOAD,2024-06-29 14:29:21,15.0883419,0.0001311,53.2173,43.6139,90.7345,269.3798,-3.9425e-05,-9.15e-06,0.0,0 STARLINK-4041,1 52695U 22053AR  24181.60372074 -.00000915  00000-0 -39425-4 0  9998,2 52695  53.2173  43.6139 0001311  90.7345 269.3798 15.08834190117787,6917.898,95.438,540.67,538.856,0.0
52695.0,STARLINK-4041,PAYLOAD,2024-06-29 19:15:30,15.08832249,0.0001116,53.2171,42.7207,100.7173,259.3945,-0.00010991,-2.036e-05,0.0,0 STARLINK-4041,1 52695U 22053AR  24181.80243980 -.00002036  00000-0 -10991-3 0  9995,2 52695  53.2171  42.7207 0001116 100.7173 259.3945 15.08832249117400,6917.904,95.438,540.541,538.997,0.0
52695.0,STARLINK-4041,PAYLOAD,2024-06-29 22:26:17,15.08832341,0.000121,53.2173,42.1262,104.2524,255.8602,-8.5268e-05,-1.644e-05,0.0,0 STARLINK-4041,1 52695U 22053AR  24181.93492072 -.00001644  00000-0 -85268-4 0  9991,2 52695  53.2173  42.1262 0001210 104.2524 255.8602 15.08832341117832,6917.904,95.438,540.606,538.932,0.0
52695.0,STARLINK-4041,PAYLOAD,2024-06-30 14:20:08,15.08840156,0.0001044,53.2177,39.1531,115.1236,244.9865,0.00027479,4.088e-05,0.0,0 STARLINK-4041,1 52695U 22053AR  24182.59732108  .00004088  00000-0  27479-3 0  9993,2 52695  53.2177  39.1531 0001044 115.1236 244.9865 15.08840156117931,6917.88,95.438,540.467,539.023,0.0
52695.0,STARLINK-4041,PAYLOAD,2024-06-30 20:41:40,15.08855917,0.0001125,53.2161,37.9655,110.8327,249.2785,0.0009072,0.00014186,0.0,0 STARLINK-4041,1 52695U 22053AR  24182.86227855  .00014186  00000-0  90720-3 0  9990,2 52695  53.2161  37.9655 0001125 110.8327 249.2785 15.08855917117569,6917.832,95.437,540.475,538.918,0.0
